STARLINK-36148          
1 67005U 25293C   26009.08632654 -.00644855  00000+0 -11055-1 0  9996
2 67005  70.0006 246.5846 0004937 314.6337  45.4447 15.53242178  5919
STARLINK-36156          
1 67006U 25293D   26009.25001157 -.00101664  00000+0 -16682-2 0  9992
2 67006  69.9997 246.1324 0003261 273.9748 283.0253 15.52564389  4571
STARLINK-36123          
1 67007U 25293E   26009.02154912 -.00431243  00000+0 -71352-2 0  9990
2 67007  70.0008 246.7610 0005719 258.4506 101.6039 15.53480843  5900
STARLINK-36163          
1 67008U 25293F   26009.08528847 -.00652815  00000+0 -11207-1 0  9991
2 67008  70.0061 246.5829 0004542 255.7548 104.3135 15.53236865  5910
STARLINK-36118          
1 67009U 25293G   26009.25001157 -.00158627  00000+0 -26213-2 0  9997
2 67009  69.9998 246.1272 0003311 273.7339 287.1178 15.52582939  4513
STARLINK-36189          
1 67010U 25293H   26009.25001157 -.00095829  00000+0 -15717-2 0  9990
2 67010  69.9998 246.1233 0003243 272.3323 292.3481 15.52554918  4571
STARLINK-36167          
1 67011U 25293J   26009.02044489  .00059937  00000+0  96913-3 0  9997
2 67011  70.0011 246.7546 0003204 262.5157  97.5666 15.52533805  5907
STARLINK-36175          
1 67012U 25293K   26009.25001157 -.00101922  00000+0 -16731-2 0  9991
2 67012  69.9998 246.1208 0003225 275.4358 291.1655 15.52555147  4516
STARLINK-35856          
1 67013U 25293L   26009.08384800  .00054967  00000+0  88976-3 0  9997
2 67013  69.9994 246.5742 0003252 265.8610  94.2205 15.52527657  5917
STARLINK-36207          
1 67014U 25293M   26009.08322808 -.00717103  00000+0 -12401-1 0  9996
2 67014  70.0067 246.5740 0004795 251.3429 108.7238 15.53255026  5917
STARLINK-36093          
1 67015U 25293N   26009.25001157 -.00116354  00000+0 -19132-2 0  9997
2 67015  69.9997 246.1113 0003352 275.3324 298.9315 15.52564056  4513
STARLINK-36120          
1 67016U 25293P   26009.25001157 -.00120594  00000+0 -19840-2 0  9995
2 67016  69.9997 246.1137 0003269 273.8617 298.4870 15.52565342  4515
