CCSDS_OMM_VERS = 2.0
CREATION_DATE  = 
ORIGINATOR     = 

OBJECT_NAME    = STARLINK-36148
OBJECT_ID      = 2025-293C
CENTER_NAME    = EARTH
REF_FRAME      = TEME
TIME_SYSTEM    = UTC
MEAN_ELEMENT_THEORY = SGP/SGP4

EPOCH          = 2026-01-09T02:04:18.613056
MEAN_MOTION    = 15.53242178
ECCENTRICITY   = .00049374
INCLINATION    = 70.0006
RA_OF_ASC_NODE = 246.5846
ARG_OF_PERICENTER = 314.6337
MEAN_ANOMALY   = 45.4447

EPHEMERIS_TYPE = 0
CLASSIFICATION_TYPE = U
NORAD_CAT_ID   = 67005
ELEMENT_SET_NO = 999
REV_AT_EPOCH   = 591
BSTAR          = -.11055176E-1
MEAN_MOTION_DOT = -.644855E-2
MEAN_MOTION_DDOT = 0

CCSDS_OMM_VERS = 2.0
CREATION_DATE  = 
ORIGINATOR     = 

OBJECT_NAME    = STARLINK-36156
OBJECT_ID      = 2025-293D
CENTER_NAME    = EARTH
REF_FRAME      = TEME
TIME_SYSTEM    = UTC
MEAN_ELEMENT_THEORY = SGP/SGP4

EPOCH          = 2026-01-09T06:00:00.999648
MEAN_MOTION    = 15.52564389
ECCENTRICITY   = .00032615
INCLINATION    = 69.9997
RA_OF_ASC_NODE = 246.1324
ARG_OF_PERICENTER = 273.9748
MEAN_ANOMALY   = 283.0253

EPHEMERIS_TYPE = 0
CLASSIFICATION_TYPE = U
NORAD_CAT_ID   = 67006
ELEMENT_SET_NO = 999
REV_AT_EPOCH   = 457
BSTAR          = -.16682343E-2
MEAN_MOTION_DOT = -.101664E-2
MEAN_MOTION_DDOT = 0

CCSDS_OMM_VERS = 2.0
CREATION_DATE  = 
ORIGINATOR     = 

OBJECT_NAME    = STARLINK-36123
OBJECT_ID      = 2025-293E
CENTER_NAME    = EARTH
REF_FRAME      = TEME
TIME_SYSTEM    = UTC
MEAN_ELEMENT_THEORY = SGP/SGP4

EPOCH          = 2026-01-09T00:31:01.843968
MEAN_MOTION    = 15.53480843
ECCENTRICITY   = .00057197
INCLINATION    = 70.0008
RA_OF_ASC_NODE = 246.7610
ARG_OF_PERICENTER = 258.4506
MEAN_ANOMALY   = 101.6039

EPHEMERIS_TYPE = 0
CLASSIFICATION_TYPE = U
NORAD_CAT_ID   = 67007
ELEMENT_SET_NO = 999
REV_AT_EPOCH   = 590
BSTAR          = -.71351534E-2
MEAN_MOTION_DOT = -.431243E-2
MEAN_MOTION_DDOT = 0

CCSDS_OMM_VERS = 2.0
CREATION_DATE  = 
ORIGINATOR     = 

OBJECT_NAME    = STARLINK-36163
OBJECT_ID      = 2025-293F
CENTER_NAME    = EARTH
REF_FRAME      = TEME
TIME_SYSTEM    = UTC
MEAN_ELEMENT_THEORY = SGP/SGP4

EPOCH          = 2026-01-09T02:02:48.923808
MEAN_MOTION    = 15.53236865
ECCENTRICITY   = .00045428
INCLINATION    = 70.0061
RA_OF_ASC_NODE = 246.5829
ARG_OF_PERICENTER = 255.7548
MEAN_ANOMALY   = 104.3135

EPHEMERIS_TYPE = 0
CLASSIFICATION_TYPE = U
NORAD_CAT_ID   = 67008
ELEMENT_SET_NO = 999
REV_AT_EPOCH   = 591
BSTAR          = -.11206745E-1
MEAN_MOTION_DOT = -.652815E-2
MEAN_MOTION_DDOT = 0

CCSDS_OMM_VERS = 2.0
CREATION_DATE  = 
ORIGINATOR     = 

OBJECT_NAME    = STARLINK-36118
OBJECT_ID      = 2025-293G
CENTER_NAME    = EARTH
REF_FRAME      = TEME
TIME_SYSTEM    = UTC
MEAN_ELEMENT_THEORY = SGP/SGP4

EPOCH          = 2026-01-09T06:00:00.999648
MEAN_MOTION    = 15.52582939
ECCENTRICITY   = .00033111
INCLINATION    = 69.9998
RA_OF_ASC_NODE = 246.1272
ARG_OF_PERICENTER = 273.7339
MEAN_ANOMALY   = 287.1178

EPHEMERIS_TYPE = 0
CLASSIFICATION_TYPE = U
NORAD_CAT_ID   = 67009
ELEMENT_SET_NO = 999
REV_AT_EPOCH   = 451
BSTAR          = -.2621325E-2
MEAN_MOTION_DOT = -.158627E-2
MEAN_MOTION_DDOT = 0

CCSDS_OMM_VERS = 2.0
CREATION_DATE  = 
ORIGINATOR     = 

OBJECT_NAME    = STARLINK-36189
OBJECT_ID      = 2025-293H
CENTER_NAME    = EARTH
REF_FRAME      = TEME
TIME_SYSTEM    = UTC
MEAN_ELEMENT_THEORY = SGP/SGP4

EPOCH          = 2026-01-09T06:00:00.999648
MEAN_MOTION    = 15.52554918
ECCENTRICITY   = .00032435
INCLINATION    = 69.9998
RA_OF_ASC_NODE = 246.1233
ARG_OF_PERICENTER = 272.3323
MEAN_ANOMALY   = 292.3481

EPHEMERIS_TYPE = 0
CLASSIFICATION_TYPE = U
NORAD_CAT_ID   = 67010
ELEMENT_SET_NO = 999
REV_AT_EPOCH   = 457
BSTAR          = -.15717241E-2
MEAN_MOTION_DOT = -.95829E-3
MEAN_MOTION_DDOT = 0

CCSDS_OMM_VERS = 2.0
CREATION_DATE  = 
ORIGINATOR     = 

OBJECT_NAME    = STARLINK-36167
OBJECT_ID      = 2025-293J
CENTER_NAME    = EARTH
REF_FRAME      = TEME
TIME_SYSTEM    = UTC
MEAN_ELEMENT_THEORY = SGP/SGP4

EPOCH          = 2026-01-09T00:29:26.438496
MEAN_MOTION    = 15.52533805
ECCENTRICITY   = .00032047
INCLINATION    = 70.0011
RA_OF_ASC_NODE = 246.7546
ARG_OF_PERICENTER = 262.5157
MEAN_ANOMALY   = 97.5666

EPHEMERIS_TYPE = 0
CLASSIFICATION_TYPE = U
NORAD_CAT_ID   = 67011
ELEMENT_SET_NO = 999
REV_AT_EPOCH   = 590
BSTAR          = .96913169E-3
MEAN_MOTION_DOT = .59937E-3
MEAN_MOTION_DDOT = 0

CCSDS_OMM_VERS = 2.0
CREATION_DATE  = 
ORIGINATOR     = 

OBJECT_NAME    = STARLINK-36175
OBJECT_ID      = 2025-293K
CENTER_NAME    = EARTH
REF_FRAME      = TEME
TIME_SYSTEM    = UTC
MEAN_ELEMENT_THEORY = SGP/SGP4

EPOCH          = 2026-01-09T06:00:00.999648
MEAN_MOTION    = 15.52555147
ECCENTRICITY   = .00032258
INCLINATION    = 69.9998
RA_OF_ASC_NODE = 246.1208
ARG_OF_PERICENTER = 275.4358
MEAN_ANOMALY   = 291.1655

EPHEMERIS_TYPE = 0
CLASSIFICATION_TYPE = U
NORAD_CAT_ID   = 67012
ELEMENT_SET_NO = 999
REV_AT_EPOCH   = 451
BSTAR          = -.16731019E-2
MEAN_MOTION_DOT = -.101922E-2
MEAN_MOTION_DDOT = 0

CCSDS_OMM_VERS = 2.0
CREATION_DATE  = 
ORIGINATOR     = 

OBJECT_NAME    = STARLINK-35856
OBJECT_ID      = 2025-293L
CENTER_NAME    = EARTH
REF_FRAME      = TEME
TIME_SYSTEM    = UTC
MEAN_ELEMENT_THEORY = SGP/SGP4

EPOCH          = 2026-01-09T02:00:44.467200
MEAN_MOTION    = 15.52527657
ECCENTRICITY   = .00032522
INCLINATION    = 69.9994
RA_OF_ASC_NODE = 246.5742
ARG_OF_PERICENTER = 265.8610
MEAN_ANOMALY   = 94.2205

EPHEMERIS_TYPE = 0
CLASSIFICATION_TYPE = U
NORAD_CAT_ID   = 67013
ELEMENT_SET_NO = 999
REV_AT_EPOCH   = 591
BSTAR          = .88975585E-3
MEAN_MOTION_DOT = .54967E-3
MEAN_MOTION_DDOT = 0

CCSDS_OMM_VERS = 2.0
CREATION_DATE  = 
ORIGINATOR     = 

OBJECT_NAME    = STARLINK-36207
OBJECT_ID      = 2025-293M
CENTER_NAME    = EARTH
REF_FRAME      = TEME
TIME_SYSTEM    = UTC
MEAN_ELEMENT_THEORY = SGP/SGP4

EPOCH          = 2026-01-09T01:59:50.906112
MEAN_MOTION    = 15.53255026
ECCENTRICITY   = .00047953
INCLINATION    = 70.0067
RA_OF_ASC_NODE = 246.5740
ARG_OF_PERICENTER = 251.3429
MEAN_ANOMALY   = 108.7238

EPHEMERIS_TYPE = 0
CLASSIFICATION_TYPE = U
NORAD_CAT_ID   = 67014
ELEMENT_SET_NO = 999
REV_AT_EPOCH   = 591
BSTAR          = -.12400654E-1
MEAN_MOTION_DOT = -.717103E-2
MEAN_MOTION_DDOT = 0

CCSDS_OMM_VERS = 2.0
CREATION_DATE  = 
ORIGINATOR     = 

OBJECT_NAME    = STARLINK-36093
OBJECT_ID      = 2025-293N
CENTER_NAME    = EARTH
REF_FRAME      = TEME
TIME_SYSTEM    = UTC
MEAN_ELEMENT_THEORY = SGP/SGP4

EPOCH          = 2026-01-09T06:00:00.999648
MEAN_MOTION    = 15.52564056
ECCENTRICITY   = .00033525
INCLINATION    = 69.9997
RA_OF_ASC_NODE = 246.1113
ARG_OF_PERICENTER = 275.3324
MEAN_ANOMALY   = 298.9315

EPHEMERIS_TYPE = 0
CLASSIFICATION_TYPE = U
NORAD_CAT_ID   = 67015
ELEMENT_SET_NO = 999
REV_AT_EPOCH   = 451
BSTAR          = -.19131874E-2
MEAN_MOTION_DOT = -.116354E-2
MEAN_MOTION_DDOT = 0

CCSDS_OMM_VERS = 2.0
CREATION_DATE  = 
ORIGINATOR     = 

OBJECT_NAME    = STARLINK-36120
OBJECT_ID      = 2025-293P
CENTER_NAME    = EARTH
REF_FRAME      = TEME
TIME_SYSTEM    = UTC
MEAN_ELEMENT_THEORY = SGP/SGP4

EPOCH          = 2026-01-09T06:00:00.999648
MEAN_MOTION    = 15.52565342
ECCENTRICITY   = .00032693
INCLINATION    = 69.9997
RA_OF_ASC_NODE = 246.1137
ARG_OF_PERICENTER = 273.8617
MEAN_ANOMALY   = 298.4870

EPHEMERIS_TYPE = 0
CLASSIFICATION_TYPE = U
NORAD_CAT_ID   = 67016
ELEMENT_SET_NO = 999
REV_AT_EPOCH   = 451
BSTAR          = -.19839986E-2
MEAN_MOTION_DOT = -.120594E-2
MEAN_MOTION_DDOT = 0

